SAR-LUPE 2              
1 31797U 07030A   26147.60344528  .00032724  00000+0  65174-3 0  9992
2 31797  98.1024 249.5443 0012722 177.0809 183.0516 15.46762682 53751
SAPPHIRE                
1 39088U 13009C   26147.45649449  .00000126  00000+0  59150-4 0  9998
2 39088  98.4256 327.4054 0010297 315.3582  44.6774 14.35234195693608
PRAETORIAN SDA_602      
1 65565U 25203A   26147.64222639  .00000089  00000+0  68756-4 0  9995
2 65565  81.3047  29.8004 0004961 247.3973 112.6660 13.84340905 35850
PRAETORIAN SDA_603      
1 65566U 25203B   26147.66241786  .00000225  00000+0  19181-3 0  9991
2 65566  81.3055  29.6827 0008500 247.9225 112.1030 13.83903248 35861
PRAETORIAN SDA_604      
1 65567U 25203C   26147.59707130  .00000127  00000+0  10557-3 0  9993
2 65567  81.3069  30.1247 0004580 257.0405 103.0240 13.83044078 35832
PRAETORIAN SDA_605      
1 65568U 25203D   26147.64047983  .00000111  00000+0  90131-4 0  9993
2 65568  81.3034  29.7678 0007230 243.6181 116.4233 13.83431926 35858
PRAETORIAN SDA_606      
1 65569U 25203E   26147.62262834  .00000108  00000+0  87577-4 0  9992
2 65569  81.3070  29.9972 0004868 243.8087 116.2569 13.83404720 35840
PRAETORIAN SDA_607      
1 65570U 25203F   26147.64368001  .00000227  00000+0  19261-3 0  9995
2 65570  81.3054  29.6725 0007869 248.2640 111.7680 13.84282047 35868
PRAETORIAN SDA_608      
1 65571U 25203G   26147.61414688  .00000109  00000+0  87455-4 0  9996
2 65571  81.3023  29.8536 0005057 255.2199 104.8398 13.83814148 35840
PRAETORIAN SDA_609      
1 65572U 25203H   26147.62571627  .00000204  00000+0  17233-3 0  9997
2 65572  81.3064  29.8312 0005918 246.4316 113.6220 13.84282176 35851
PRAETORIAN SDA_610      
1 65573U 25203J   26147.16061570  .00000081  00000+0  62589-4 0  9996
2 65573  81.3024  30.2323 0005671 252.6681 107.3856 13.83850009 35788
PRAETORIAN SDA_611      
1 65574U 25203K   26147.15315289  .00000229  00000+0  19800-3 0  9996
2 65574  81.3033  30.3873 0004660 261.3971  98.6658 13.83307222 35771
PRAETORIAN SDA_612      
1 65575U 25203L   26147.60244308  .00000264  00000+0  22312-3 0  9991
2 65575  81.3048  29.6086 0008287 247.6431 112.3848 13.85036385 35868
PRAETORIAN SDA_613      
1 65576U 25203M   26147.15162912  .00000131  00000+0  10989-3 0  9992
2 65576  81.3017  30.3694 0004733 248.9257 111.1393 13.82763147 35773
PRAETORIAN SDA_614      
1 65577U 25203N   26147.66000881  .00000108  00000+0  85598-4 0  9998
2 65577  81.3030  29.6281 0006178 245.2537 114.7978 13.84776046 35871
PRAETORIAN SDA_615      
1 65578U 25203P   26147.63182310  .00000259  00000+0  22126-3 0  9998
2 65578  81.3040  29.6048 0008073 245.3611 114.6705 13.84433385 35866
PRAETORIAN SDA_616      
1 65579U 25203Q   26147.07940112  .00000225  00000+0  19460-3 0  9999
2 65579  81.3080  30.5869 0004578 259.6915 100.3725 13.83264663 35767
PRAETORIAN SDA_617      
1 65580U 25203R   26147.60558251  .00000081  00000+0  62907-4 0  9994
2 65580  81.3053  29.9336 0006446 245.9731 114.0751 13.83148233 35844
PRAETORIAN SDA_618      
1 65581U 25203S   26147.60156913  .00000218  00000+0  18331-3 0  9997
2 65581  81.3039  29.5710 0008788 247.5304 112.4923 13.84773375 35863
PRAETORIAN SDA_619      
1 65582U 25203T   26147.62477499  .00000210  00000+0  17884-3 0  9999
2 65582  81.3061  29.8141 0007078 244.7525 115.2898 13.83942128 36489
PRAETORIAN SDA_620      
1 65583U 25203U   26147.14345121  .00000167  00000+0  14060-3 0  9997
2 65583  81.3047  30.2770 0006682 243.5345 116.5126 13.83616180 35781
PRAETORIAN SDA_621      
1 65584U 25203V   26147.62614941  .00000140  00000+0  11584-3 0  9999
2 65584  81.3037  29.7560 0006461 239.6414 120.4104 13.83798467 35856
PRAETORIAN SDA_601      
1 65585U 25203W   26147.66008333  .00000414  00000+0  36708-3 0  9995
2 65585  81.3066  29.9976 0004440 260.4790  99.5865 13.83270735 35848
